[{"OBJECT_NAME":"STARLINK-2634","OBJECT_ID":"2021-040T","EPOCH":"2026-03-09T21:39:54.086976","MEAN_MOTION":15.30209502,"ECCENTRICITY":0.00012058,"INCLINATION":53.16,"RA_OF_ASC_NODE":177.1427,"ARG_OF_PERICENTER":73.806,"MEAN_ANOMALY":286.3073,"EPHEMERIS_TYPE":0,"CLASSIFICATION_TYPE":"U","NORAD_CAT_ID":48445,"ELEMENT_SET_NO":999,"REV_AT_EPOCH":26671,"BSTAR":0.00026697441,"MEAN_MOTION_DOT":7.558e-5,"MEAN_MOTION_DDOT":0},{"OBJECT_NAME":"TRANSPORTER-1 OBJECT AA","OBJECT_ID":"2021-006AA","EPOCH":"2026-03-09T22:58:14.761920","MEAN_MOTION":15.29982294,"ECCENTRICITY":0.00086604,"INCLINATION":97.2381,"RA_OF_ASC_NODE":112.457,"ARG_OF_PERICENTER":185.709,"MEAN_ANOMALY":174.4054,"EPHEMERIS_TYPE":0,"CLASSIFICATION_TYPE":"U","NORAD_CAT_ID":47437,"ELEMENT_SET_NO":999,"REV_AT_EPOCH":28414,"BSTAR":0.0002197941,"MEAN_MOTION_DOT":6.312e-5,"MEAN_MOTION_DDOT":0}]
